{
  "norad_id": 55974,
  "name": "TIANMU-1 04",
  "history": [
    {
      "epoch": "2026-03-28T22:40:23.326752Z",
      "apogee_km": 433.08335695385995,
      "perigee_km": 427.7872409054153,
      "latitude_deg": 3.252834227439683e-05,
      "longitude_deg": 91.6270119581064,
      "height_km": 431.5455391966645,
      "semi_major_axis_km": 6808.572298929637,
      "eccentricity": 0.00038893,
      "inclination_deg": 97.5128,
      "raan_deg": 258.0821,
      "arg_perigee_deg": 40.7332,
      "mean_anomaly_deg": 319.4207,
      "mean_motion_rev_day": 15.45320912
    },
    {
      "epoch": "2026-03-29T04:53:22.073280Z",
      "apogee_km": 433.0541250715887,
      "perigee_km": 427.72713305461,
      "latitude_deg": 5.655292871061276e-05,
      "longitude_deg": -1.604663439014347,
      "height_km": 431.46434377375493,
      "semi_major_axis_km": 6808.527629063099,
      "eccentricity": 0.0003912,
      "inclination_deg": 97.5127,
      "raan_deg": 258.3505,
      "arg_perigee_deg": 39.9057,
      "mean_anomaly_deg": 320.2479,
      "mean_motion_rev_day": 15.4533612
    },
    {
      "epoch": "2026-03-30T04:12:00.529632Z",
      "apogee_km": 432.8538966730084,
      "perigee_km": 427.6250635362876,
      "latitude_deg": -5.818377632572653e-05,
      "longitude_deg": 8.78298170959299,
      "height_km": 431.26393152464186,
      "semi_major_axis_km": 6808.376480104648,
      "eccentricity": 0.000384,
      "inclination_deg": 97.5128,
      "raan_deg": 259.3557,
      "arg_perigee_deg": 36.8205,
      "mean_anomaly_deg": 323.3306,
      "mean_motion_rev_day": 15.45387581
    },
    {
      "epoch": "2026-03-30T07:18:29.461824Z",
      "apogee_km": 432.841598700159,
      "perigee_km": 427.601341352949,
      "latitude_deg": -3.493138250795306e-05,
      "longitude_deg": -37.831114522715424,
      "height_km": 431.2203341059734,
      "semi_major_axis_km": 6808.358470026554,
      "eccentricity": 0.00038484,
      "inclination_deg": 97.5128,
      "raan_deg": 259.4898,
      "arg_perigee_deg": 36.0443,
      "mean_anomaly_deg": 324.1064,
      "mean_motion_rev_day": 15.45393713
    },
    {
      "epoch": "2026-03-30T13:31:27.132672Z",
      "apogee_km": 432.77659202119594,
      "perigee_km": 427.5735437726671,
      "latitude_deg": 0.0001022313005610089,
      "longitude_deg": -131.05881026875252,
      "height_km": 431.1655230908713,
      "semi_major_axis_km": 6808.312067896931,
      "eccentricity": 0.00038211,
      "inclination_deg": 97.5127,
      "raan_deg": 259.7577,
      "arg_perigee_deg": 35.1526,
      "mean_anomaly_deg": 324.9975,
      "mean_motion_rev_day": 15.45409512
    },
    {
      "epoch": "2026-03-30T21:17:38.915808Z",
      "apogee_km": 432.68149461303346,
      "perigee_km": 427.55120338442975,
      "latitude_deg": -7.504970503924834e-05,
      "longitude_deg": 112.40791686761851,
      "height_km": 431.11727423759623,
      "semi_major_axis_km": 6808.253348998732,
      "eccentricity": 0.00037677,
      "inclination_deg": 97.5127,
      "raan_deg": 260.0926,
      "arg_perigee_deg": 34.3905,
      "mean_anomaly_deg": 325.7586,
      "mean_motion_rev_day": 15.45429505
    },
    {
      "epoch": "2026-03-31T20:36:12.406752Z",
      "apogee_km": 432.4940266242984,
      "perigee_km": 427.4424125513651,
      "latitude_deg": 8.186007304626952e-05,
      "longitude_deg": 122.8164729645667,
      "height_km": 430.9224044066724,
      "semi_major_axis_km": 6808.105219587832,
      "eccentricity": 0.000371,
      "inclination_deg": 97.5129,
      "raan_deg": 261.098,
      "arg_perigee_deg": 31.0492,
      "mean_anomaly_deg": 329.0976,
      "mean_motion_rev_day": 15.45479943
    },
    {
      "epoch": "2026-04-01T19:54:43.126848Z",
      "apogee_km": 432.32502411601945,
      "perigee_km": 427.32525672009706,
      "latitude_deg": -2.303832819192723e-05,
      "longitude_deg": 133.23664009270234,
      "height_km": 430.7387735952483,
      "semi_major_axis_km": 6807.962140418058,
      "eccentricity": 0.0003672,
      "inclination_deg": 97.513,
      "raan_deg": 262.1034,
      "arg_perigee_deg": 28.1173,
      "mean_anomaly_deg": 332.0273,
      "mean_motion_rev_day": 15.45528664
    },
    {
      "epoch": "2026-04-02T19:13:10.577568Z",
      "apogee_km": 432.09148963830285,
      "perigee_km": 427.1368083520638,
      "latitude_deg": -5.335097267949677e-05,
      "longitude_deg": 143.67045668347487,
      "height_km": 430.4860236147372,
      "semi_major_axis_km": 6807.751148995183,
      "eccentricity": 0.0003639,
      "inclination_deg": 97.5131,
      "raan_deg": 263.1088,
      "arg_perigee_deg": 24.9007,
      "mean_anomaly_deg": 335.2416,
      "mean_motion_rev_day": 15.45600515
    },
    {
      "epoch": "2026-04-02T22:19:37.873344Z",
      "apogee_km": 432.03270099821657,
      "perigee_km": 427.09167292831717,
      "latitude_deg": 1.4957165314703147e-05,
      "longitude_deg": 97.06319155074708,
      "height_km": 430.4315613805236,
      "semi_major_axis_km": 6807.699186963267,
      "eccentricity": 0.0003629,
      "inclination_deg": 97.5132,
      "raan_deg": 263.2429,
      "arg_perigee_deg": 24.4139,
      "mean_anomaly_deg": 335.7281,
      "mean_motion_rev_day": 15.45618211
    },
    {
      "epoch": "2026-04-03T20:04:47.140608Z",
      "apogee_km": 431.79628215659795,
      "perigee_km": 426.9384470420191,
      "latitude_deg": -1.4211077823954603e-05,
      "longitude_deg": 130.8197352817502,
      "height_km": 430.2228936142833,
      "semi_major_axis_km": 6807.504364599308,
      "eccentricity": 0.0003568,
      "inclination_deg": 97.5134,
      "raan_deg": 264.1814,
      "arg_perigee_deg": 21.2425,
      "mean_anomaly_deg": 338.8971,
      "mean_motion_rev_day": 15.45684562
    },
    {
      "epoch": "2026-04-04T19:23:06.863712Z",
      "apogee_km": 431.5923985463569,
      "perigee_km": 426.87489068963714,
      "latitude_deg": -1.0469190618510623e-05,
      "longitude_deg": 141.28563241318136,
      "height_km": 430.105183847172,
      "semi_major_axis_km": 6807.370644617997,
      "eccentricity": 0.0003465,
      "inclination_deg": 97.5138,
      "raan_deg": 265.1866,
      "arg_perigee_deg": 17.601,
      "mean_anomaly_deg": 342.5358,
      "mean_motion_rev_day": 15.45730106
    },
    {
      "epoch": "2026-04-05T14:01:44.941152Z",
      "apogee_km": 431.487068459498,
      "perigee_km": 426.7900483242074,
      "latitude_deg": -5.660042362117059e-05,
      "longitude_deg": -138.33409695853956,
      "height_km": 429.98283282527245,
      "semi_major_axis_km": 6807.275558391852,
      "eccentricity": 0.000345,
      "inclination_deg": 97.514,
      "raan_deg": 265.9912,
      "arg_perigee_deg": 14.2796,
      "mean_anomaly_deg": 345.8549,
      "mean_motion_rev_day": 15.45762493
    }
  ]
}